GLOBALSTAR M024         
1 25883U 99043A   26062.51760671 -.00000031  00000+0  12099-2 0  9997
2 25883  52.0010 155.4792 0002250 151.1147 299.1322 11.10172009143668
GLOBALSTAR M027         
1 25884U 99043B   26062.72356711 -.00000062  00000+0  67410-4 0  9990
2 25884  52.0186 240.3518 0021924  52.3343 307.9435 11.04373538169914
GLOBALSTAR M054         
1 25885U 99043C   26063.12758834 -.00000046  00000+0  63784-3 0  9999
2 25885  52.0170 323.1272 0004076 268.1703 241.4985 11.39224856148679
GLOBALSTAR M053         
1 25886U 99043D   26063.08278719 -.00000044  00000+0  71721-3 0  9992
2 25886  51.9976 284.7509 0003720 148.0404  13.1664 11.27670891148765
GLOBALSTAR M058         
1 25907U 99049A   26063.16393006 -.00000082  00000+0  33430-4 0  9996
2 25907  51.9935 134.9614 0002259  65.0871 295.0198 11.93208088572570
GLOBALSTAR M050         
1 25908U 99049B   26063.13496001  .00000018  00000+0  11966-2 0  9999
2 25908  51.9981 123.2930 0009409 187.2495 188.4900 12.07465420179599
GLOBALSTAR M033         
1 25909U 99049C   26063.16605281 -.00000109  00000+0 -16280-3 0  9993
2 25909  51.9943 337.0862 0015043  78.8151 281.4387 12.20304568567484
GLOBALSTAR M055         
1 25910U 99049D   26063.09175582 -.00000059  00000+0  30274-3 0  9995
2 25910  52.0048 335.3845 0006692 317.0657  42.9672 12.29441144200252
GLOBALSTAR M057         
1 25943U 99058A   26063.11060255 -.00000046  00000+0  42512-3 0  9998
2 25943  52.0012 330.5363 0002190 175.0176 185.0695 12.24834693198786
GLOBALSTAR M059         
1 25944U 99058B   26062.90965262 -.00000097  00000+0 -12909-3 0  9991
2 25944  51.9998 224.5299 0001323 113.5741  21.2428 11.99994952605223
GLOBALSTAR M056         
1 25945U 99058C   26062.60891132 -.00000103  00000+0 -18340-3 0  9996
2 25945  51.9943 220.6551 0000946  32.4096  47.2717 12.04785913193890
GLOBALSTAR M031         
1 25946U 99058D   26063.14429229  .00000039  00000+0  13122-2 0  9999
2 25946  51.9949  95.9472 0001099 359.7031  35.6670 12.16049603196171
GLOBALSTAR M039         
1 25961U 99062A   26062.79518463 -.00000104  00000+0 -35380-5 0  9998
2 25961  51.9834 197.9872 0002708 184.7745 175.3097 12.62342782213006
GLOBALSTAR M034         
1 25962U 99062B   26063.12787824 -.00000077  00000+0  64363-4 0  9996
2 25962  51.9881  55.6831 0014215 172.0331 266.8949 11.79455996169068
GLOBALSTAR M029         
1 25963U 99062C   26063.15651689 -.00000049  00000+0  45574-3 0  9990
2 25963  51.9791 111.6755 0002245 257.2566 107.3709 11.99908767200333
GLOBALSTAR M061         
1 25964U 99062D   26062.79426887 -.00000064  00000+0  26368-3 0  9997
2 25964  51.9767 244.0365 0006982  93.8403   7.6086 11.76778613151741
