[{"OBJECT_NAME":"GLOBALSTAR M024","OBJECT_ID":"1999-043A","EPOCH":"2026-03-03T12:25:21.219744","MEAN_MOTION":11.10172009,"ECCENTRICITY":0.00022508,"INCLINATION":52.001,"RA_OF_ASC_NODE":155.4792,"ARG_OF_PERICENTER":151.1147,"MEAN_ANOMALY":299.1322,"EPHEMERIS_TYPE":0,"CLASSIFICATION_TYPE":"U","NORAD_CAT_ID":25883,"ELEMENT_SET_NO":999,"REV_AT_EPOCH":14366,"BSTAR":0.0012099496,"MEAN_MOTION_DOT":-3.1e-7,"MEAN_MOTION_DDOT":0},{"OBJECT_NAME":"GLOBALSTAR M027","OBJECT_ID":"1999-043B","EPOCH":"2026-03-03T17:21:56.198304","MEAN_MOTION":11.04373538,"ECCENTRICITY":0.00219241,"INCLINATION":52.0186,"RA_OF_ASC_NODE":240.3518,"ARG_OF_PERICENTER":52.3343,"MEAN_ANOMALY":307.9435,"EPHEMERIS_TYPE":0,"CLASSIFICATION_TYPE":"U","NORAD_CAT_ID":25884,"ELEMENT_SET_NO":999,"REV_AT_EPOCH":16991,"BSTAR":6.7409574e-5,"MEAN_MOTION_DOT":-6.2e-7,"MEAN_MOTION_DDOT":0},{"OBJECT_NAME":"GLOBALSTAR M054","OBJECT_ID":"1999-043C","EPOCH":"2026-03-04T03:03:43.632576","MEAN_MOTION":11.39224856,"ECCENTRICITY":0.0004076,"INCLINATION":52.017,"RA_OF_ASC_NODE":323.1272,"ARG_OF_PERICENTER":268.1703,"MEAN_ANOMALY":241.4985,"EPHEMERIS_TYPE":0,"CLASSIFICATION_TYPE":"U","NORAD_CAT_ID":25885,"ELEMENT_SET_NO":999,"REV_AT_EPOCH":14867,"BSTAR":0.00063784,"MEAN_MOTION_DOT":-4.6e-7,"MEAN_MOTION_DDOT":0},{"OBJECT_NAME":"GLOBALSTAR M053","OBJECT_ID":"1999-043D","EPOCH":"2026-03-04T01:59:12.813216","MEAN_MOTION":11.27670891,"ECCENTRICITY":0.000372,"INCLINATION":51.9976,"RA_OF_ASC_NODE":284.7509,"ARG_OF_PERICENTER":148.0404,"MEAN_ANOMALY":13.1664,"EPHEMERIS_TYPE":0,"CLASSIFICATION_TYPE":"U","NORAD_CAT_ID":25886,"ELEMENT_SET_NO":999,"REV_AT_EPOCH":14876,"BSTAR":0.00071721,"MEAN_MOTION_DOT":-4.4e-7,"MEAN_MOTION_DDOT":0},{"OBJECT_NAME":"GLOBALSTAR M058","OBJECT_ID":"1999-049A","EPOCH":"2026-03-04T03:56:03.557184","MEAN_MOTION":11.93208088,"ECCENTRICITY":0.0002259,"INCLINATION":51.9935,"RA_OF_ASC_NODE":134.9614,"ARG_OF_PERICENTER":65.0871,"MEAN_ANOMALY":295.0198,"EPHEMERIS_TYPE":0,"CLASSIFICATION_TYPE":"U","NORAD_CAT_ID":25907,"ELEMENT_SET_NO":999,"REV_AT_EPOCH":57257,"BSTAR":3.343e-5,"MEAN_MOTION_DOT":-8.2e-7,"MEAN_MOTION_DDOT":0},{"OBJECT_NAME":"GLOBALSTAR M050","OBJECT_ID":"1999-049B","EPOCH":"2026-03-04T03:14:20.544864","MEAN_MOTION":12.0746542,"ECCENTRICITY":0.0009409,"INCLINATION":51.9981,"RA_OF_ASC_NODE":123.293,"ARG_OF_PERICENTER":187.2495,"MEAN_ANOMALY":188.49,"EPHEMERIS_TYPE":0,"CLASSIFICATION_TYPE":"U","NORAD_CAT_ID":25908,"ELEMENT_SET_NO":999,"REV_AT_EPOCH":17959,"BSTAR":0.0011966,"MEAN_MOTION_DOT":1.8e-7,"MEAN_MOTION_DDOT":0},{"OBJECT_NAME":"GLOBALSTAR M033","OBJECT_ID":"1999-049C","EPOCH":"2026-03-04T03:59:06.962784","MEAN_MOTION":12.20304568,"ECCENTRICITY":0.0015043,"INCLINATION":51.9943,"RA_OF_ASC_NODE":337.0862,"ARG_OF_PERICENTER":78.8151,"MEAN_ANOMALY":281.4387,"EPHEMERIS_TYPE":0,"CLASSIFICATION_TYPE":"U","NORAD_CAT_ID":25909,"ELEMENT_SET_NO":999,"REV_AT_EPOCH":56748,"BSTAR":-0.0001628,"MEAN_MOTION_DOT":-1.09e-6,"MEAN_MOTION_DDOT":0},{"OBJECT_NAME":"GLOBALSTAR M055","OBJECT_ID":"1999-049D","EPOCH":"2026-03-04T02:12:07.702848","MEAN_MOTION":12.29441144,"ECCENTRICITY":0.0006692,"INCLINATION":52.0048,"RA_OF_ASC_NODE":335.3845,"ARG_OF_PERICENTER":317.0657,"MEAN_ANOMALY":42.9672,"EPHEMERIS_TYPE":0,"CLASSIFICATION_TYPE":"U","NORAD_CAT_ID":25910,"ELEMENT_SET_NO":999,"REV_AT_EPOCH":20025,"BSTAR":0.00030274,"MEAN_MOTION_DOT":-5.9e-7,"MEAN_MOTION_DDOT":0},{"OBJECT_NAME":"GLOBALSTAR M057","OBJECT_ID":"1999-058A","EPOCH":"2026-03-04T02:39:16.060320","MEAN_MOTION":12.24834693,"ECCENTRICITY":0.000219,"INCLINATION":52.0012,"RA_OF_ASC_NODE":330.5363,"ARG_OF_PERICENTER":175.0176,"MEAN_ANOMALY":185.0695,"EPHEMERIS_TYPE":0,"CLASSIFICATION_TYPE":"U","NORAD_CAT_ID":25943,"ELEMENT_SET_NO":999,"REV_AT_EPOCH":19878,"BSTAR":0.00042512,"MEAN_MOTION_DOT":-4.6e-7,"MEAN_MOTION_DDOT":0},{"OBJECT_NAME":"GLOBALSTAR M059","OBJECT_ID":"1999-058B","EPOCH":"2026-03-03T21:49:53.986368","MEAN_MOTION":11.99994952,"ECCENTRICITY":0.0001323,"INCLINATION":51.9998,"RA_OF_ASC_NODE":224.5299,"ARG_OF_PERICENTER":113.5741,"MEAN_ANOMALY":21.2428,"EPHEMERIS_TYPE":0,"CLASSIFICATION_TYPE":"U","NORAD_CAT_ID":25944,"ELEMENT_SET_NO":999,"REV_AT_EPOCH":60522,"BSTAR":-0.00012909,"MEAN_MOTION_DOT":-9.7e-7,"MEAN_MOTION_DDOT":0},{"OBJECT_NAME":"GLOBALSTAR M056","OBJECT_ID":"1999-058C","EPOCH":"2026-03-03T14:36:49.938048","MEAN_MOTION":12.04785913,"ECCENTRICITY":9.46e-5,"INCLINATION":51.9943,"RA_OF_ASC_NODE":220.6551,"ARG_OF_PERICENTER":32.4096,"MEAN_ANOMALY":47.2717,"EPHEMERIS_TYPE":0,"CLASSIFICATION_TYPE":"U","NORAD_CAT_ID":25945,"ELEMENT_SET_NO":999,"REV_AT_EPOCH":19389,"BSTAR":-0.0001834,"MEAN_MOTION_DOT":-1.03e-6,"MEAN_MOTION_DDOT":0},{"OBJECT_NAME":"GLOBALSTAR M031","OBJECT_ID":"1999-058D","EPOCH":"2026-03-04T03:27:46.853856","MEAN_MOTION":12.16049603,"ECCENTRICITY":0.0001099,"INCLINATION":51.9949,"RA_OF_ASC_NODE":95.9472,"ARG_OF_PERICENTER":359.7031,"MEAN_ANOMALY":35.667,"EPHEMERIS_TYPE":0,"CLASSIFICATION_TYPE":"U","NORAD_CAT_ID":25946,"ELEMENT_SET_NO":999,"REV_AT_EPOCH":19617,"BSTAR":0.0013122,"MEAN_MOTION_DOT":3.9e-7,"MEAN_MOTION_DDOT":0},{"OBJECT_NAME":"GLOBALSTAR M039","OBJECT_ID":"1999-062A","EPOCH":"2026-03-03T19:05:03.952032","MEAN_MOTION":12.62342782,"ECCENTRICITY":0.00027084,"INCLINATION":51.9834,"RA_OF_ASC_NODE":197.9872,"ARG_OF_PERICENTER":184.7745,"MEAN_ANOMALY":175.3097,"EPHEMERIS_TYPE":0,"CLASSIFICATION_TYPE":"U","NORAD_CAT_ID":25961,"ELEMENT_SET_NO":999,"REV_AT_EPOCH":21300,"BSTAR":-3.538033e-6,"MEAN_MOTION_DOT":-1.04e-6,"MEAN_MOTION_DDOT":0},{"OBJECT_NAME":"GLOBALSTAR M034","OBJECT_ID":"1999-062B","EPOCH":"2026-03-04T03:04:08.679936","MEAN_MOTION":11.79455996,"ECCENTRICITY":0.0014215,"INCLINATION":51.9881,"RA_OF_ASC_NODE":55.6831,"ARG_OF_PERICENTER":172.0331,"MEAN_ANOMALY":266.8949,"EPHEMERIS_TYPE":0,"CLASSIFICATION_TYPE":"U","NORAD_CAT_ID":25962,"ELEMENT_SET_NO":999,"REV_AT_EPOCH":16906,"BSTAR":6.4363e-5,"MEAN_MOTION_DOT":-7.7e-7,"MEAN_MOTION_DDOT":0},{"OBJECT_NAME":"GLOBALSTAR M029","OBJECT_ID":"1999-062C","EPOCH":"2026-03-04T03:45:23.059296","MEAN_MOTION":11.99908767,"ECCENTRICITY":0.0002245,"INCLINATION":51.9791,"RA_OF_ASC_NODE":111.6755,"ARG_OF_PERICENTER":257.2566,"MEAN_ANOMALY":107.3709,"EPHEMERIS_TYPE":0,"CLASSIFICATION_TYPE":"U","NORAD_CAT_ID":25963,"ELEMENT_SET_NO":999,"REV_AT_EPOCH":20033,"BSTAR":0.00045574,"MEAN_MOTION_DOT":-4.9e-7,"MEAN_MOTION_DDOT":0},{"OBJECT_NAME":"GLOBALSTAR M061","OBJECT_ID":"1999-062D","EPOCH":"2026-03-03T19:03:44.830368","MEAN_MOTION":11.76778613,"ECCENTRICITY":0.00069821,"INCLINATION":51.9767,"RA_OF_ASC_NODE":244.0365,"ARG_OF_PERICENTER":93.8403,"MEAN_ANOMALY":7.6086,"EPHEMERIS_TYPE":0,"CLASSIFICATION_TYPE":"U","NORAD_CAT_ID":25964,"ELEMENT_SET_NO":999,"REV_AT_EPOCH":15174,"BSTAR":0.00026367944,"MEAN_MOTION_DOT":-6.4e-7,"MEAN_MOTION_DDOT":0}]
